{
  "type": "FeatureCollection",
  "features": [
    {
      "type": "Feature",
      "properties": {
        "norad_id": 38755,
        "name": "SPOT 6",
        "group": "resource",
        "lat": -48.72758986394766,
        "lon": -129.0856470133701,
        "alt_km": 705.5695659663133,
        "timestamp": "2025-12-21T16:47:54.385696+00:00",
        "meta_object_name": "SPOT 6",
        "meta_object_id": "2012-047A",
        "meta_epoch": "2025-12-21T12:27:26.637984",
        "meta_mean_motion": 14.5854025,
        "meta_eccentricity": 0.0001317,
        "meta_inclination": 98.1567,
        "meta_ra_of_asc_node": 60.1421,
        "meta_arg_of_pericenter": 77.6678,
        "meta_mean_anomaly": 282.4669,
        "meta_ephemeris_type": 0,
        "meta_classification_type": "U",
        "meta_norad_cat_id": 38755,
        "meta_element_set_no": 999,
        "meta_rev_at_epoch": 70715,
        "meta_bstar": 0.00012823,
        "meta_mean_motion_dot": 5.51e-06,
        "meta_mean_motion_ddot": 0,
        "tle_line1": "1 38755U 12047A   25355.51905831  .00000551  00000+0  12823-3 0  9993",
        "tle_line2": "2 38755  98.1567  60.1421 0001317  77.6678 282.4669 14.58540250707154"
      },
      "geometry": {
        "type": "Point",
        "coordinates": [
          -129.0856470133701,
          -48.72758986394766
        ]
      }
    },
    {
      "type": "Feature",
      "properties": {
        "norad_id": 39019,
        "name": "PLEIADES 1B",
        "group": "resource",
        "lat": 51.7086442286916,
        "lon": -101.29306500822072,
        "alt_km": 692.4060785881102,
        "timestamp": "2025-12-21T16:47:54.385706+00:00",
        "meta_object_name": "PLEIADES 1B",
        "meta_object_id": "2012-068A",
        "meta_epoch": "2025-12-21T11:16:36.526944",
        "meta_mean_motion": 14.58560851,
        "meta_eccentricity": 0.000119,
        "meta_inclination": 98.1792,
        "meta_ra_of_asc_node": 67.9842,
        "meta_arg_of_pericenter": 85.1697,
        "meta_mean_anomaly": 274.9638,
        "meta_ephemeris_type": 0,
        "meta_classification_type": "U",
        "meta_norad_cat_id": 39019,
        "meta_element_set_no": 999,
        "meta_rev_at_epoch": 69494,
        "meta_bstar": 0.00012725,
        "meta_mean_motion_dot": 5.46e-06,
        "meta_mean_motion_ddot": 0,
        "tle_line1": "1 39019U 12068A   25355.46986721  .00000546  00000+0  12725-3 0  9996",
        "tle_line2": "2 39019  98.1792  67.9842 0001190  85.1697 274.9638 14.58560851694947"
      },
      "geometry": {
        "type": "Point",
        "coordinates": [
          -101.29306500822072,
          51.7086442286916
        ]
      }
    },
    {
      "type": "Feature",
      "properties": {
        "norad_id": 39030,
        "name": "GOKTURK 2",
        "group": "resource",
        "lat": 18.03472489694515,
        "lon": 19.433170964355728,
        "alt_km": 644.0419011085287,
        "timestamp": "2025-12-21T16:47:54.385716+00:00",
        "meta_object_name": "GOKTURK 2",
        "meta_object_id": "2012-073A",
        "meta_epoch": "2025-12-21T12:48:44.919936",
        "meta_mean_motion": 14.75302492,
        "meta_eccentricity": 0.000131,
        "meta_inclination": 97.6885,
        "meta_ra_of_asc_node": 196.7544,
        "meta_arg_of_pericenter": 109.2203,
        "meta_mean_anomaly": 250.9149,
        "meta_ephemeris_type": 0,
        "meta_classification_type": "U",
        "meta_norad_cat_id": 39030,
        "meta_element_set_no": 999,
        "meta_rev_at_epoch": 69831,
        "meta_bstar": 9.3047e-05,
        "meta_mean_motion_dot": 5.83e-06,
        "meta_mean_motion_ddot": 0,
        "tle_line1": "1 39030U 12073A   25355.53385324  .00000583  00000+0  93047-4 0  9993",
        "tle_line2": "2 39030  97.6885 196.7544 0001310 109.2203 250.9149 14.75302492698312"
      },
      "geometry": {
        "type": "Point",
        "coordinates": [
          19.433170964355728,
          18.03472489694515
        ]
      }
    },
    {
      "type": "Feature",
      "properties": {
        "norad_id": 39084,
        "name": "LANDSAT 8",
        "group": "resource",
        "lat": -69.41437139102445,
        "lon": -138.95419179971267,
        "alt_km": 710.5011076535484,
        "timestamp": "2025-12-21T16:47:54.385726+00:00",
        "meta_object_name": "LANDSAT 8",
        "meta_object_id": "2013-008A",
        "meta_epoch": "2025-12-21T10:42:20.579328",
        "meta_mean_motion": 14.5711087,
        "meta_eccentricity": 0.0001074,
        "meta_inclination": 98.2061,
        "meta_ra_of_asc_node": 63.3906,
        "meta_arg_of_pericenter": 91.3058,
        "meta_mean_anomaly": 268.8264,
        "meta_ephemeris_type": 0,
        "meta_classification_type": "U",
        "meta_norad_cat_id": 39084,
        "meta_element_set_no": 999,
        "meta_rev_at_epoch": 67201,
        "meta_bstar": 8.7368e-05,
        "meta_mean_motion_dot": 3.48e-06,
        "meta_mean_motion_ddot": 0,
        "tle_line1": "1 39084U 13008A   25355.44607152  .00000348  00000+0  87368-4 0  9995",
        "tle_line2": "2 39084  98.2061  63.3906 0001074  91.3058 268.8264 14.57110870672013"
      },
      "geometry": {
        "type": "Point",
        "coordinates": [
          -138.95419179971267,
          -69.41437139102445
        ]
      }
    },
    {
      "type": "Feature",
      "properties": {
        "norad_id": 39086,
        "name": "SARAL",
        "group": "resource",
        "lat": 7.351359676123681,
        "lon": 0.625389737434122,
        "alt_km": 784.1146585489487,
        "timestamp": "2025-12-21T16:47:54.385737+00:00",
        "meta_object_name": "SARAL",
        "meta_object_id": "2013-009A",
        "meta_epoch": "2025-12-21T10:58:05.829888",
        "meta_mean_motion": 14.32759876,
        "meta_eccentricity": 0.0002959,
        "meta_inclination": 98.5502,
        "meta_ra_of_asc_node": 179.2736,
        "meta_arg_of_pericenter": 92.2471,
        "meta_mean_anomaly": 267.9051,
        "meta_ephemeris_type": 0,
        "meta_classification_type": "U",
        "meta_norad_cat_id": 39086,
        "meta_element_set_no": 999,
        "meta_rev_at_epoch": 67015,
        "meta_bstar": 5.2556e-05,
        "meta_mean_motion_dot": 9.9e-07,
        "meta_mean_motion_ddot": 0,
        "tle_line1": "1 39086U 13009A   25355.45701192  .00000099  00000+0  52556-4 0  9992",
        "tle_line2": "2 39086  98.5502 179.2736 0002959  92.2471 267.9051 14.32759876670153"
      },
      "geometry": {
        "type": "Point",
        "coordinates": [
          0.625389737434122,
          7.351359676123681
        ]
      }
    },
    {
      "type": "Feature",
      "properties": {
        "norad_id": 39150,
        "name": "GAOFEN-1",
        "group": "resource",
        "lat": -77.66161364109652,
        "lon": 105.80176901746431,
        "alt_km": 660.1717513728645,
        "timestamp": "2025-12-21T16:47:54.385747+00:00",
        "meta_object_name": "GAOFEN-1",
        "meta_object_id": "2013-018A",
        "meta_epoch": "2025-12-21T12:17:03.987744",
        "meta_mean_motion": 14.76495587,
        "meta_eccentricity": 0.0018442,
        "meta_inclination": 97.9323,
        "meta_ra_of_asc_node": 66.0166,
        "meta_arg_of_pericenter": 116.3583,
        "meta_mean_anomaly": 243.9523,
        "meta_ephemeris_type": 0,
        "meta_classification_type": "U",
        "meta_norad_cat_id": 39150,
        "meta_element_set_no": 999,
        "meta_rev_at_epoch": 68202,
        "meta_bstar": 0.00015345,
        "meta_mean_motion_dot": 1.021e-05,
        "meta_mean_motion_ddot": 0,
        "tle_line1": "1 39150U 13018A   25355.51185171  .00001021  00000+0  15345-3 0  9994",
        "tle_line2": "2 39150  97.9323  66.0166 0018442 116.3583 243.9523 14.76495587682026"
      },
      "geometry": {
        "type": "Point",
        "coordinates": [
          105.80176901746431,
          -77.66161364109652
        ]
      }
    },
    {
      "type": "Feature",
      "properties": {
        "norad_id": 39160,
        "name": "VNREDSAT 1",
        "group": "resource",
        "lat": -31.357290407152288,
        "lon": 55.53769721804737,
        "alt_km": 683.6648553438163,
        "timestamp": "2025-12-21T16:47:54.385758+00:00",
        "meta_object_name": "VNREDSAT 1",
        "meta_object_id": "2013-021B",
        "meta_epoch": "2025-12-21T12:01:29.953632",
        "meta_mean_motion": 14.64935322,
        "meta_eccentricity": 0.0001202,
        "meta_inclination": 97.9366,
        "meta_ra_of_asc_node": 50.4691,
        "meta_arg_of_pericenter": 82.1225,
        "meta_mean_anomaly": 278.0115,
        "meta_ephemeris_type": 0,
        "meta_classification_type": "U",
        "meta_norad_cat_id": 39160,
        "meta_element_set_no": 999,
        "meta_rev_at_epoch": 67427,
        "meta_bstar": 0.00012689,
        "meta_mean_motion_dot": 6.33e-06,
        "meta_mean_motion_ddot": 0,
        "tle_line1": "1 39160U 13021B   25355.50104113  .00000633  00000+0  12689-3 0  9991",
        "tle_line2": "2 39160  97.9366  50.4691 0001202  82.1225 278.0115 14.64935322674270"
      },
      "geometry": {
        "type": "Point",
        "coordinates": [
          55.53769721804737,
          -31.357290407152288
        ]
      }
    }
  ]
}